STARLINK-31071          
1 58602U 23200P   25039.39172689  .00004550  00000+0  18362-3 0  9998
2 58602  42.9997  73.2107 0001261 259.1431 100.9278 15.25920831 65215
STARLINK-31080          
1 58603U 23200Q   25039.60328418  .00001440  00000+0  12165-3 0  9996
2 58603  43.0026 151.5949 0001109 291.2143  68.8581 15.02528771 64123
STARLINK-31088          
1 58604U 23200R   25039.33404244 -.00000430  00000+0 -16741-4 0  9994
2 58604  43.0028 153.0007 0001101 274.4206  85.6510 15.02537613 64273
STARLINK-31038          
1 58605U 23200S   25039.59329625 -.00000361  00000+0 -11650-4 0  9999
2 58605  43.0022 151.5185 0001272 265.9911  94.0786 15.02533371 64316
STARLINK-31082          
1 58606U 23200T   25039.59662596  .00000096  00000+0  22216-4 0  9990
2 58606  43.0036 151.5439 0001256 267.2123  92.8575 15.02534126 64317
STARLINK-31069          
1 58607U 23200U   25039.58996904 -.00000326  00000+0 -90458-5 0  9995
2 58607  42.9977 151.4907 0000937 267.5588  92.5147 15.02529654 64314
STARLINK-31067          
1 58608U 23200V   25039.58665359  .00000788  00000+0  73449-4 0  9993
2 58608  43.0024 151.4676 0001256 257.4119 102.6583 15.02511642 64311
STARLINK-31085          
1 58609U 23200W   25039.58331413  .00000874  00000+0  79825-4 0  9995
2 58609  43.0037 151.4401 0001738 266.3691  93.6953 15.02521687 64311
STARLINK-31089          
1 58610U 23200X   25039.57343081  .00004669  00000+0  36051-3 0  9999
2 58610  43.0031 152.1665 0000677 257.0039 103.0727 15.02533019 64307
STARLINK-31061          
1 58611U 23200Y   25039.57998325  .00010061  00000+0  75935-3 0  9994
2 58611  42.9997 151.4129 0000669 222.1603 137.9187 15.02505574 64317
STARLINK-31054          
1 58619U 23203B   25036.36040607  .00000678  00000+0  35759-4 0  9994
2 58619  43.0006 151.1094 0000754 284.9846  75.0921 15.25903708 62790
STARLINK-31134          
1 58621U 23203D   25039.55654709 -.00000128  00000+0  49484-5 0  9997
2 58621  43.0070 132.9523 0001326 263.4262  96.6438 15.25898473 63287
STARLINK-31133          
1 58622U 23203E   25039.58334491 -.00047119  00000+0 -17138-2 0  9994
2 58622  43.0022 132.8770 0000972 269.9671 207.3999 15.27577654  5757
STARLINK-31068          
1 58623U 23203F   25039.58334491 -.00098751  00000+0 -36218-2 0  9993
2 58623  43.0024 132.8253 0001285 267.3238 231.2344 15.27627370  5396
STARLINK-31129          
1 58624U 23203G   25039.58334491 -.00037651  00000+0 -13655-2 0  9996
2 58624  43.0026 132.7919 0001731 275.0129 237.7212 15.27582152  5807
STARLINK-30774          
1 58625U 23203H   25039.55143237  .00075960  00000+0  28331-2 0  9990
2 58625  43.0035 132.9189 0002856 296.1729  63.8828 15.26495863 63286
STARLINK-31086          
1 58626U 23203J   25039.52926206  .00001623  00000+0  71860-4 0  9995
2 58626  43.0004 131.9134 0000671 256.4036 103.6740 15.25903173 63299
STARLINK-31065          
1 58627U 23203K   25039.53364567  .00002339  00000+0  99230-4 0  9999
2 58627  43.0023 131.0714 0001247 271.9847  88.0861 15.25906642 63304
STARLINK-31092          
1 58628U 23203L   25039.58334491 -.00066618  00000+0 -24319-2 0  9994
2 58628  43.0009 132.6935 0001336 269.6589 285.5350 15.27596768  5801
STARLINK-31091          
1 58629U 23203M   25039.54522959  .00000794  00000+0  40195-4 0  9992
2 58629  43.0017 132.8751 0000544 284.3313  75.7478 15.25907484 63283
STARLINK-31084          
1 58630U 23203N   25039.54297765 -.00003177  00000+0 -11176-3 0  9994
2 58630  43.0001 132.8572 0000372 229.9945 130.0873 15.25886125 63286
STARLINK-31064          
1 58631U 23203P   25039.53844587  .00004517  00000+0  18234-3 0  9993
2 58631  42.9987 132.8243 0000129 218.1304 141.9538 15.25920814 64455
STARLINK-31081          
1 58632U 23203Q   25039.53619112 -.00003209  00000+0 -11287-3 0  9998
2 58632  43.0026 132.8111 0000244 227.8298 132.2532 15.25924617 64512
STARLINK-31022          
1 58633U 23203R   25038.95159678  .00007804  00000+0  30780-3 0  9992
2 58633  43.0010 136.1595 0001225 267.8118  92.2593 15.25916218 64424
STARLINK-31025          
1 58634U 23203S   25039.52657628  .00003254  00000+0  13424-3 0  9996
2 58634  43.0011 129.2279 0001284 278.2527  81.8178 15.25895917 64552
STARLINK-31018          
1 58635U 23203T   25039.58334491 -.00103676  00000+0 -38071-2 0  9998
2 58635  43.0015 133.1003 0001267 258.1820 134.2788 15.27612887  5808
STARLINK-31008          
1 58636U 23203U   25039.58334491 -.00057957  00000+0 -21128-2 0  9994
2 58636  43.0014 133.1368 0001101 282.8479  95.4655 15.27585109  5800
STARLINK-31077          
1 58637U 23203V   25039.58334491 -.00069483  00000+0 -25370-2 0  9995
2 58637  43.0012 133.0468 0001407 276.4270 137.2322 15.27607774  5849
STARLINK-31078          
1 58638U 23203W   25039.58334491 -.00096449  00000+0 -35368-2 0  9996
2 58638  43.0003 132.9887 0001326 273.4604 161.4362 15.27620378  5849
STARLINK-31070          
1 58639U 23203X   25039.30827652 -.00003783  00000+0 -13481-3 0  9995
2 58639  42.9943 134.5327 0000614 227.3839 132.6961 15.25922333 63242
STARLINK-31090          
1 58640U 23203Y   25039.56385539  .00000767  00000+0  39166-4 0  9994
2 58640  42.9998 124.3894 0001092 231.1060 128.9693 15.25908811 63391
STARLINK-31113          
1 58668U 23211B   25039.35486318  .00004023  00000+0  16349-3 0  9993
2 58668  42.9892 150.7648 0000741 182.3109 177.7739 15.25921776 62178
STARLINK-31128          
1 58669U 23211C   25039.59860686 -.00000638  00000+0 -14573-4 0  9992
2 58669  43.0014 149.1520 0001101 291.7453  68.3281 15.25900288 62213
STARLINK-31083          
1 58670U 23211D   25039.35939783  .00010980  00000+0  42959-3 0  9990
2 58670  42.9962 150.8074 0001124 215.4098 144.6678 15.25860015 62177
STARLINK-30828          
1 58671U 23211E   25039.57827246 -.00000969  00000+0 -27239-4 0  9998
2 58671  42.9993 149.0160 0000376 155.3870 204.6999 15.25884404 62212
STARLINK-31104          
1 58672U 23211F   25039.36165046  .00000565  00000+0  31432-4 0  9999
2 58672  43.0006 150.8303 0000803 232.0180 128.0598 15.25902675 63453
STARLINK-31131          
1 58673U 23211G   25039.58334491 -.00008487  00000+0 -29954-3 0  9994
2 58673  43.0022 140.1678 0000873 277.8504 112.7482 15.27549153  5844
STARLINK-31124          
1 58674U 23211H   25039.35260242  .00016822  00000+0  65131-3 0  9999
2 58674  42.9998 150.7528 0000226  46.3558 313.7312 15.25916204 62173
STARLINK-31126          
1 58675U 23211J   25039.36390821  .00000965  00000+0  46711-4 0  9993
2 58675  42.9943 150.8316 0001988 174.8737 185.2134 15.25914099 62176
STARLINK-31066          
1 58676U 23211K   25039.17976115  .00002582  00000+0  20604-3 0  9998
2 58676  43.0014 218.3380 0002511 263.4164  96.6392 15.02559579 62647
STARLINK-31058          
1 58677U 23211L   25039.35033977 -.00000914  00000+0 -25127-4 0  9994
2 58677  42.9942 150.7259 0000500 263.4492  96.6302 15.25907575 62177
STARLINK-31125          
1 58678U 23211M   25039.57598320  .00000262  00000+0  19841-4 0  9997
2 58678  43.0003 148.9996 0000601 225.8326 134.2476 15.25905442 63381
STARLINK-31110          
1 58679U 23211N   25039.60538418 -.00000283  00000+0 -96714-6 0  9995
2 58679  43.0058 149.2027 0001903 281.0855  78.9782 15.25908870 62211
STARLINK-31112          
1 58680U 23211P   25039.60086267 -.00001560  00000+0 -49792-4 0  9998
2 58680  43.0039 149.1680 0002453 285.7315  74.3266 15.25907380 63391
STARLINK-31147          
1 58681U 23211Q   25039.60312321  .00001228  00000+0  56800-4 0  9999
2 58681  43.0022 149.1857 0001499 286.5692  73.4994 15.25908608 62218
STARLINK-31144          
1 58682U 23211R   25039.57372236 -.00000053  00000+0  78080-5 0  9998
2 58682  43.0003 148.9825 0000956 240.5098 119.5657 15.25905231 62214
STARLINK-31095          
1 58683U 23211S   25039.59633933  .00002282  00000+0  97089-4 0  9999
2 58683  43.0034 149.1399 0000671 261.3929  98.6846 15.25896137 63487
STARLINK-31107          
1 58684U 23211T   25039.58728578  .00001482  00000+0  66482-4 0  9993
2 58684  42.9992 149.0734 0000489 272.0136  88.0659 15.25912879 62214
STARLINK-31121          
1 58685U 23211U   25039.58048662  .00002271  00000+0  96618-4 0  9994
2 58685  42.9975 149.0200 0002478 292.3047  67.7541 15.25923264 62214
STARLINK-31137          
1 58686U 23211V   25039.57145666  .00000879  00000+0  43426-4 0  9997
2 58686  43.0005 148.9665 0000786 246.1273 113.9495 15.25905636 63487
STARLINK-31139          
1 58688U 23211X   25039.58502923 -.00003414  00000+0 -12073-3 0  9996
2 58688  42.9989 149.0578 0000231 182.9120 177.1730 15.25918633 62211
STARLINK-31106          
1 58689U 23211Y   25039.59181251  .00000292  00000+0  20994-4 0  9996
2 58689  43.0039 149.1084 0000694 281.3922  78.6851 15.25907171 62214
STARLINK-11072 [DTC]    
1 58705U 24002A   25039.33305361 -.00006308  00000+0 -34562-4 0  9998
2 58705  53.1576  59.1964 0001116  99.5405 260.5742 15.76736418 64485
STARLINK-11075 [DTC]    
1 58706U 24002B   25039.35287528  .00007636  00000+0  50526-4 0  9996
2 58706  53.1576  61.5364 0001586  71.3788 288.7405 15.76769386 64455
STARLINK-11077 [DTC]    
1 58707U 24002C   25039.33793500 -.00000222  00000+0  26390-5 0  9995
2 58707  53.1582  59.2162 0001055  71.7447 288.3689 15.76740184 64488
STARLINK-11079 [DTC]    
1 58708U 24002D   25039.32817296  .00005408  00000+0  37003-4 0  9996
2 58708  53.1571  59.1597 0001153  84.4860 275.6292 15.76738724 64483
STARLINK-11076 [DTC]    
1 58709U 24002E   25039.31841868 -.00002185  00000+0 -93610-5 0  9996
2 58709  53.1579  59.1015 0001109 100.0368 260.0778 15.76717079 64483
STARLINK-11078 [DTC]    
1 58710U 24002F   25039.43542183  .00000835  00000+0  91049-5 0  9991
2 58710  53.1589  58.4051 0001598  93.4054 266.7149 15.76718631 64500
STARLINK-31031          
1 58711U 24002G   25039.54764473  .00000587  00000+0  60367-4 0  9994
2 58711  53.1597 238.0752 0001274  73.1410 286.9719 15.04929159 61993
